ORBCOMM FM16            
1 25417U 98046E   26064.85651292  .00001884  00000+0  63973-3 0  9993
2 25417  44.9949   9.3571 0003024 198.3523 161.7217 14.39822832441955
ORBCOMM FM15            
1 25418U 98046F   26064.83007327  .00000577  00000+0  22889-3 0  9995
2 25418  44.9983  15.4349 0002728 201.4877 158.5857 14.39442030441933
ORBCOMM FM14            
1 25419U 98046G   26064.35921071  .00001813  00000+0  61672-3 0  9991
2 25419  44.9968  15.0846 0001567 208.8095 151.2667 14.39880930441842
ORBCOMM FM13            
1 25420U 98046H   26064.57719489  .00001623  00000+0  57321-3 0  9990
2 25420  44.9986  24.7484 0003222 166.2701 193.8235 14.38436460440868
ORBCOMM FM21            
1 25475U 98053A   26064.44350662  .00001285  00000+0  46755-3 0  9991
2 25475  45.0074 111.6680 0001101 225.4412 134.6346 14.38005180434841
ORBCOMM FM22            
1 25476U 98053B   26064.27524579  .00001502  00000+0  52541-3 0  9995
2 25476  45.0065 105.0324 0001097 135.8222 224.2715 14.39228246434871
ORBCOMM FM23            
1 25477U 98053C   26064.47369465  .00001385  00000+0  49774-3 0  9992
2 25477  45.0073 113.2053 0000669 163.3908 196.6962 14.38265632435003
ORBCOMM FM24            
1 25478U 98053D   26064.57992309  .00001465  00000+0  51682-3 0  9993
2 25478  45.0071 108.9613 0000896 190.8187 169.2643 14.38912861435084
ORBCOMM FM25            
1 25479U 98053E   26064.41797353  .00001394  00000+0  49457-3 0  9997
2 25479  45.0062 108.0431 0002895 144.3469 215.7574 14.38874373435357
ORBCOMM FM26            
1 25480U 98053F   26064.47208338  .00001212  00000+0  44517-3 0  9996
2 25480  45.0062 106.2433 0005141 153.4309 206.6803 14.37810836435247
ORBCOMM FM27            
1 25481U 98053G   26064.46880887  .00001545  00000+0  54256-3 0  9991
2 25481  45.0048 107.9000 0001791 246.8038 113.2622 14.38918898435298
ORBCOMM FM28            
1 25482U 98053H   26064.34095857  .00001384  00000+0  48990-3 0  9993
2 25482  45.0060  45.7125 0003674 200.0148 160.0557 14.39014848435960
ORBCOMM FM30            
1 25980U 99065A   26064.64079800  .00001084  00000+0  40179-3 0  9991
2 25980  45.0316 291.5411 0005822 242.7846 117.2409 14.37971678372074
ORBCOMM FM31            
1 25981U 99065B   26064.76569101  .00001089  00000+0  40422-3 0  9999
2 25981  45.0225 284.3911 0003505 273.1224  86.9223 14.37895042371641
ORBCOMM FM32            
1 25982U 99065C   26064.77576593  .00001154  00000+0  43345-3 0  9994
2 25982  45.0160 302.6644 0005778 268.2079  91.8108 14.36957412372214
ORBCOMM FM33            
1 25983U 99065D   26064.71876598  .00001513  00000+0  51246-3 0  9995
2 25983  45.0273 194.8290 0008253 289.7668  70.2292 14.40777403373773
ORBCOMM FM36            
1 25984U 99065E   26064.60209999  .00001488  00000+0  52376-3 0  9995
2 25984  45.0390 291.2566 0002444 165.3295 194.7625 14.38970306372060
